OCO 2                   
1 40059U 14035A   26095.84623409  .00000739  00000+0  17405-3 0  9997
2 40059  98.1967  38.2634 0001578  89.4095 270.7285 14.57129025625518
BRITE-PL2 (HEWELIUSZ)   
1 40119U 14049B   26095.86062317  .00003469  00000+0  32759-3 0  9998
2 40119  97.9007 207.3530 0013735 356.2200   3.8914 14.94332740630647
MMS 1                   
1 40482U 15011A   26095.91670139 -.00001300  00000+0  00000+0 0  9997
2 40482  71.1425 349.8001 8382986 165.8517 126.5807  0.28348648  1308
MMS 2                   
1 40483U 15011B   26095.91670139 -.00001300  00000+0  00000+0 0  9998
2 40483  71.1427 349.8022 8383734 165.8577 126.5656  0.28348667  1305
MMS 3                   
1 40484U 15011C   26095.91670139 -.00001300  00000+0  00000+0 0  9999
2 40484  71.1453 349.8068 8382987 165.8520 126.5702  0.28348624  1307
MMS 4                   
1 40485U 15011D   26095.91670139 -.00001300  00000+0  00000+0 0  9990
2 40485  71.1417 349.8025 8382486 165.8588 126.5600  0.28348687  1305
ASTROSAT                
1 40930U 15052A   26094.42370633  .00002628  00000+0  23869-3 0  9996
2 40930   5.9978 326.2599 0007504  58.6972 301.3890 14.82373506568861
DAMPE                   
1 41173U 15078A   26095.86690456  .00001735  00000+0  61219-4 0  9991
2 41173  97.4581 100.9831 0011464 341.2136  18.8680 15.30602895573487
PISAT                   
1 41784U 16059B   26095.73408015  .00001687  00000+0  29474-3 0  9995
2 41784  97.8194  99.3062 0030563  77.7400 282.7226 14.68848584509105
HXMT (HUIYAN)           
1 42758U 17034A   26095.82774747  .00008738  00000+0  43004-3 0  9998
2 42758  43.0140 225.7544 0030731  44.6178 315.7137 15.17841228486669
FLYING LAPTOP           
1 42831U 17042G   26095.85068088  .00005879  00000+0  46658-3 0  9997
2 42831  97.4368 254.3340 0019681  11.0406 349.1247 15.00714581475609
ZHANGHENG 1-01 (CSES-1) 
1 43194U 18015C   26095.82977034  .00011790  00000+0  53233-3 0  9994
2 43194  97.6804 260.0727 0018743 144.0913 216.1585 15.20983814453647
SALSAT                  
1 46495U 20068K   26095.58020954  .00009877  00000+0  35593-3 0  9997
2 46495  97.8868  94.2870 0009619 186.5581 173.5533 15.28738181304261
IXPE                    
1 49954U 21121A   26095.83336806  .00016315  00000+0  92805-3 0  9999
2 49954   0.2296 144.2788 0006885  64.3654  66.2976 15.09586400  5820
